{
    "links": {
        "self": "http://www.neowsapp.com/rest/v1/neo/3578976?api_key=iIulBulltgU6a56xZRHN4H3l9WmuAYTsLGpBGhQ2"
    },
    "id": "3578976",
    "neo_reference_id": "3578976",
    "name": "(2011 SQ26)",
    "designation": "2011 SQ26",
    "nasa_jpl_url": "http://ssd.jpl.nasa.gov/sbdb.cgi?sstr=3578976",
    "absolute_magnitude_h": 22.1,
    "estimated_diameter": {
        "kilometers": {
            "estimated_diameter_min": 0.1010543415,
            "estimated_diameter_max": 0.2259643771
        },
        "meters": {
            "estimated_diameter_min": 101.054341542,
            "estimated_diameter_max": 225.9643771094
        },
        "miles": {
            "estimated_diameter_min": 0.0627922373,
            "estimated_diameter_max": 0.140407711
        },
        "feet": {
            "estimated_diameter_min": 331.5431259047,
            "estimated_diameter_max": 741.3529669956
        }
    },
    "is_potentially_hazardous_asteroid": false,
    "close_approach_data": [
        {
            "close_approach_date": "2011-08-16",
            "close_approach_date_full": "2011-Aug-16 22:04",
            "epoch_date_close_approach": 1313532240000,
            "relative_velocity": {
                "kilometers_per_second": "4.9674528881",
                "kilometers_per_hour": "17882.8303971318",
                "miles_per_hour": "11111.6953653734"
            },
            "miss_distance": {
                "astronomical": "0.2338355664",
                "lunar": "90.9620353296",
                "kilometers": "34981302.663683568",
                "miles": "21736373.5461785184"
            },
            "orbiting_body": "Earth"
        },
        {
            "close_approach_date": "2031-08-12",
            "close_approach_date_full": "2031-Aug-12 17:22",
            "epoch_date_close_approach": 1944321720000,
            "relative_velocity": {
                "kilometers_per_second": "6.2683909177",
                "kilometers_per_hour": "22566.2073038275",
                "miles_per_hour": "14021.7636438699"
            },
            "miss_distance": {
                "astronomical": "0.2538950338",
                "lunar": "98.7651681482",
                "kilometers": "37982156.260058006",
                "miles": "23601017.5062762428"
            },
            "orbiting_body": "Earth"
        }
    ],
    "orbital_data": {
        "orbit_id": "6",
        "orbit_determination_date": "2017-04-06 08:52:45",
        "first_observation_date": "2011-09-21",
        "last_observation_date": "2011-10-22",
        "data_arc_in_days": 31,
        "observations_used": 27,
        "orbit_uncertainty": "7",
        "minimum_orbit_intersection": ".219159",
        "jupiter_tisserand_invariant": "3.706",
        "epoch_osculation": "2459000.5",
        "eccentricity": ".4036431516430732",
        "semi_major_axis": "2.015458485525309",
        "inclination": "9.258094336810666",
        "ascending_node_longitude": "355.1470381312108",
        "orbital_period": "1045.103283788519",
        "perihelion_distance": "1.201932470422098",
        "perihelion_argument": "315.571324362769",
        "aphelion_distance": "2.828984500628519",
        "perihelion_time": "2458906.976229518480",
        "mean_anomaly": "32.215531130376",
        "mean_motion": ".34446356219932",
        "equinox": "J2000",
        "orbit_class": {
            "orbit_class_type": "AMO",
            "orbit_class_description": "Near-Earth asteroid orbits similar to that of 1221 Amor",
            "orbit_class_range": "1.017 AU < q (perihelion) < 1.3 AU"
        }
    },
    "is_sentry_object": false
}